start=new Date('2022-11-20T00:00:00.000Z').valueOf();
sats=[{"PERIAPSIS":"545.900","OBJECT_NAME":"STARLINK-1948","SEMIMAJOR_AXIS":"6925.346","EPHEMERIS_TYPE":"0","PERIOD":"95.592","TIME_SYSTEM":"UTC","OBJECT_TYPE":"PAYLOAD","ECCENTRICITY":"0.00018930","REF_FRAME":"TEME","INCLINATION":"53.0553","SITE":"AFETR","MEAN_MOTION_DOT":"0.00001462","CENTER_NAME":"EARTH","LAUNCH_DATE":"2020-10-24","TLE_LINE1":"1 46798U 20074BM  22323.80564769  .00001462  00000-0  11704-3 0  9993","FILE":"3663561","BSTAR":"0.00011704000000","NORAD_CAT_ID":"46798","EPOCH":"2022-11-19T19:20:07.960416","APOAPSIS":"548.522","TLE_LINE2":"2 46798  53.0553 350.0484 0001893  60.5106 299.6072 15.06400927114713","ELEMENT_SET_NO":"999","OBJECT_ID":"2020-074BM","DECAY_DATE":null,"REV_AT_EPOCH":"11471","RCS_SIZE":"LARGE","GP_ID":"218233490","MEAN_ELEMENT_THEORY":"SGP4","MEAN_ANOMALY":"299.6072","COUNTRY_CODE":"US","MEAN_MOTION_DDOT":"0.0000000000000","CLASSIFICATION_TYPE":"U","RA_OF_ASC_NODE":"350.0484","MEAN_MOTION":"15.06400927","ARG_OF_PERICENTER":"60.5106"},{"MEAN_MOTION_DDOT":"0.0000000000000","RA_OF_ASC_NODE":"315.5386","CLASSIFICATION_TYPE":"U","ARG_OF_PERICENTER":"60.8264","MEAN_MOTION":"15.06409532","TLE_LINE2":"2 47122  53.0550 315.5386 0001836  60.8264 299.2909 15.06409532110064","EPOCH":"2022-11-19T16:38:57.083136","APOAPSIS":"548.456","BSTAR":"0.00044127000000","NORAD_CAT_ID":"47122","ELEMENT_SET_NO":"999","GP_ID":"218235520","MEAN_ELEMENT_THEORY":"SGP4","RCS_SIZE":"LARGE","REV_AT_EPOCH":"11006","DECAY_DATE":null,"OBJECT_ID":"2020-088A","COUNTRY_CODE":"US","MEAN_ANOMALY":"299.2909","SITE":"AFETR","CENTER_NAME":"EARTH","MEAN_MOTION_DOT":"0.00006299","LAUNCH_DATE":"2020-11-25","FILE":"3663561","TLE_LINE1":"1 47122U 20088A   22323.69371624  .00006299  00000-0  44127-3 0  9991","OBJECT_NAME":"STARLINK-1777","PERIAPSIS":"545.913","PERIOD":"95.592","EPHEMERIS_TYPE":"0","SEMIMAJOR_AXIS":"6925.319","OBJECT_TYPE":"PAYLOAD","TIME_SYSTEM":"UTC","INCLINATION":"53.0550","REF_FRAME":"TEME","ECCENTRICITY":"0.00018360"},{"ELEMENT_SET_NO":"999","BSTAR":"0.00031308000000","NORAD_CAT_ID":"47124","APOAPSIS":"548.297","EPOCH":"2022-11-19T11:33:05.521824","TLE_LINE2":"2 47124  53.0552 321.5165 0001594  59.8210 300.2937 15.06406815109962","MEAN_ANOMALY":"300.2937","COUNTRY_CODE":"US","DECAY_DATE":null,"OBJECT_ID":"2020-088C","REV_AT_EPOCH":"10996","RCS_SIZE":"LARGE","MEAN_ELEMENT_THEORY":"SGP4","GP_ID":"218236275","MEAN_MOTION_DDOT":"0.0000000000000","MEAN_MOTION":"15.06406815","ARG_OF_PERICENTER":"59.8210","CLASSIFICATION_TYPE":"U","RA_OF_ASC_NODE":"321.5165","SEMIMAJOR_AXIS":"6925.328","EPHEMERIS_TYPE":"0","PERIOD":"95.592","PERIAPSIS":"546.089","OBJECT_NAME":"STARLINK-1785","ECCENTRICITY":"0.00015940","REF_FRAME":"TEME","INCLINATION":"53.0552","TIME_SYSTEM":"UTC","OBJECT_TYPE":"PAYLOAD","CENTER_NAME":"EARTH","MEAN_MOTION_DOT":"0.00004386","SITE":"AFETR","TLE_LINE1":"1 47124U 20088C   22323.48131391  .00004386  00000-0  31308-3 0  9997","FILE":"3663561","LAUNCH_DATE":"2020-11-25"},{"CLASSIFICATION_TYPE":"U","RA_OF_ASC_NODE":"315.4204","ARG_OF_PERICENTER":"54.9122","MEAN_MOTION":"15.06402131","MEAN_MOTION_DDOT":"0.0000000000000","REV_AT_EPOCH":"11007","DECAY_DATE":null,"OBJECT_ID":"2020-088E","MEAN_ELEMENT_THEORY":"SGP4","GP_ID":"218234527","RCS_SIZE":"LARGE","MEAN_ANOMALY":"305.2044","COUNTRY_CODE":"US","EPOCH":"2022-11-19T17:16:06.014784","APOAPSIS":"548.514","NORAD_CAT_ID":"47126","BSTAR":"0.00007727300000","TLE_LINE2":"2 47126  53.0550 315.4204 0001887  54.9122 305.2044 15.06402131110076","ELEMENT_SET_NO":"999","LAUNCH_DATE":"2020-11-25","TLE_LINE1":"1 47126U 20088E   22323.71951406  .00000870  00000-0  77273-4 0  9998","FILE":"3663561","SITE":"AFETR","CENTER_NAME":"EARTH","MEAN_MOTION_DOT":"0.00000870","TIME_SYSTEM":"UTC","OBJECT_TYPE":"PAYLOAD","REF_FRAME":"TEME","ECCENTRICITY":"0.00018870","INCLINATION":"53.0550","PERIAPSIS":"545.900","OBJECT_NAME":"STARLINK-1812","EPHEMERIS_TYPE":"0","SEMIMAJOR_AXIS":"6925.342","PERIOD":"95.592"},{"SITE":"AFETR","CENTER_NAME":"EARTH","MEAN_MOTION_DOT":"0.00000281","LAUNCH_DATE":"2020-11-25","TLE_LINE1":"1 47128U 20088G   22323.21269854  .00000281  00000-0  37794-4 0  9994","FILE":"3663316","PERIAPSIS":"545.920","OBJECT_NAME":"STARLINK-1837","EPHEMERIS_TYPE":"0","SEMIMAJOR_AXIS":"6925.334","PERIOD":"95.592","TIME_SYSTEM":"UTC","OBJECT_TYPE":"PAYLOAD","REF_FRAME":"TEME","ECCENTRICITY":"0.00018470","INCLINATION":"53.0553","MEAN_MOTION_DDOT":"0.0000000000000","CLASSIFICATION_TYPE":"U","RA_OF_ASC_NODE":"297.7029","ARG_OF_PERICENTER":"59.4708","MEAN_MOTION":"15.06404740","APOAPSIS":"548.478","EPOCH":"2022-11-19T05:06:17.153856","NORAD_CAT_ID":"47128","BSTAR":"0.00003779400000","TLE_LINE2":"2 47128  53.0553 297.7029 0001847  59.4708 300.6463 15.06404740110278","ELEMENT_SET_NO":"999","REV_AT_EPOCH":"11027","DECAY_DATE":null,"OBJECT_ID":"2020-088G","GP_ID":"218204257","MEAN_ELEMENT_THEORY":"SGP4","RCS_SIZE":"LARGE","MEAN_ANOMALY":"300.6463","COUNTRY_CODE":"US"},{"LAUNCH_DATE":"2020-11-25","FILE":"3663561","TLE_LINE1":"1 47129U 20088H   22323.44030324  .00001063  00000-0  90276-4 0  9991","SITE":"AFETR","MEAN_MOTION_DOT":"0.00001063","CENTER_NAME":"EARTH","OBJECT_TYPE":"PAYLOAD","TIME_SYSTEM":"UTC","INCLINATION":"53.0561","ECCENTRICITY":"0.00018830","REF_FRAME":"TEME","OBJECT_NAME":"STARLINK-1838","PERIAPSIS":"545.909","PERIOD":"95.592","SEMIMAJOR_AXIS":"6925.348","EPHEMERIS_TYPE":"0","RA_OF_ASC_NODE":"306.6907","CLASSIFICATION_TYPE":"U","MEAN_MOTION":"15.06400234","ARG_OF_PERICENTER":"45.5975","MEAN_MOTION_DDOT":"0.0000000000000","RCS_SIZE":"LARGE","MEAN_ELEMENT_THEORY":"SGP4","GP_ID":"218236020","OBJECT_ID":"2020-088H","DECAY_DATE":null,"REV_AT_EPOCH":"11017","COUNTRY_CODE":"US","MEAN_ANOMALY":"314.5168","TLE_LINE2":"2 47129  53.0561 306.6907 0001883  45.5975 314.5168 15.06400234110174","BSTAR":"0.00009027600000","NORAD_CAT_ID":"47129","EPOCH":"2022-11-19T10:34:02.199936","APOAPSIS":"548.517","ELEMENT_SET_NO":"999"},{"MEAN_ANOMALY":"293.4342","COUNTRY_CODE":"US","OBJECT_ID":"2020-088J","DECAY_DATE":null,"REV_AT_EPOCH":"11003","RCS_SIZE":"LARGE","MEAN_ELEMENT_THEORY":"SGP4","GP_ID":"218235776","ELEMENT_SET_NO":"999","BSTAR":"0.00051630000000","NORAD_CAT_ID":"47130","APOAPSIS":"414.073","EPOCH":"2022-11-19T11:36:40.429728","TLE_LINE2":"2 47130  53.0562 316.5400 0003878  66.7075 293.4342 15.51811172110038","MEAN_MOTION":"15.51811172","ARG_OF_PERICENTER":"66.7075","CLASSIFICATION_TYPE":"U","RA_OF_ASC_NODE":"316.5400","MEAN_MOTION_DDOT":"0.0000000000000","ECCENTRICITY":"0.00038780","REF_FRAME":"TEME","INCLINATION":"53.0562","TIME_SYSTEM":"UTC","OBJECT_TYPE":"PAYLOAD","SEMIMAJOR_AXIS":"6789.575","EPHEMERIS_TYPE":"0","PERIOD":"92.795","PERIAPSIS":"408.807","OBJECT_NAME":"STARLINK-1839","TLE_LINE1":"1 47130U 20088J   22323.48380127  .00031054  00000-0  51630-3 0  9999","FILE":"3663561","LAUNCH_DATE":"2020-11-25","CENTER_NAME":"EARTH","MEAN_MOTION_DOT":"0.00031054","SITE":"AFETR"},{"PERIOD":"95.592","EPHEMERIS_TYPE":"0","SEMIMAJOR_AXIS":"6925.332","OBJECT_NAME":"STARLINK-1843","PERIAPSIS":"546.170","INCLINATION":"53.0533","REF_FRAME":"TEME","ECCENTRICITY":"0.00014820","OBJECT_TYPE":"PAYLOAD","TIME_SYSTEM":"UTC","MEAN_MOTION_DOT":"0.00002414","CENTER_NAME":"EARTH","SITE":"AFETR","FILE":"3663561","TLE_LINE1":"1 47133U 20088M   22323.83101454  .00002414  00000-0  18084-3 0  9999","LAUNCH_DATE":"2020-11-25","ELEMENT_SET_NO":"999","TLE_LINE2":"2 47133  53.0533 304.9421 0001482  68.4609 291.6538 15.06405548110228","EPOCH":"2022-11-19T19:56:39.656256","APOAPSIS":"548.223","BSTAR":"0.00018084000000","NORAD_CAT_ID":"47133","COUNTRY_CODE":"US","MEAN_ANOMALY":"291.6538","GP_ID":"218235027","MEAN_ELEMENT_THEORY":"SGP4","RCS_SIZE":"LARGE","REV_AT_EPOCH":"11022","DECAY_DATE":null,"OBJECT_ID":"2020-088M","MEAN_MOTION_DDOT":"0.0000000000000","ARG_OF_PERICENTER":"68.4609","MEAN_MOTION":"15.06405548","RA_OF_ASC_NODE":"304.9421","CLASSIFICATION_TYPE":"U"},{"ELEMENT_SET_NO":"999","TLE_LINE2":"2 47134  53.0550 316.8456 0001637  60.4410 299.6742 15.06404921110029","APOAPSIS":"548.332","EPOCH":"2022-11-19T09:44:56.865408","BSTAR":"0.00019718000000","NORAD_CAT_ID":"47134","COUNTRY_CODE":"US","MEAN_ANOMALY":"299.6742","MEAN_ELEMENT_THEORY":"SGP4","GP_ID":"218203758","RCS_SIZE":"LARGE","REV_AT_EPOCH":"11002","DECAY_DATE":null,"OBJECT_ID":"2020-088N","MEAN_MOTION_DDOT":"0.0000000000000","ARG_OF_PERICENTER":"60.4410","MEAN_MOTION":"15.06404921","RA_OF_ASC_NODE":"316.8456","CLASSIFICATION_TYPE":"U","PERIOD":"95.592","SEMIMAJOR_AXIS":"6925.333","EPHEMERIS_TYPE":"0","OBJECT_NAME":"STARLINK-1844","PERIAPSIS":"546.065","INCLINATION":"53.0550","REF_FRAME":"TEME","ECCENTRICITY":"0.00016370","OBJECT_TYPE":"PAYLOAD","TIME_SYSTEM":"UTC","CENTER_NAME":"EARTH","MEAN_MOTION_DOT":"0.00002657","SITE":"AFETR","FILE":"3663316","TLE_LINE1":"1 47134U 20088N   22323.40621372  .00002657  00000-0  19718-3 0  9993","LAUNCH_DATE":"2020-11-25"},{"INCLINATION":"53.0547","REF_FRAME":"TEME","ECCENTRICITY":"0.00018450","OBJECT_TYPE":"PAYLOAD","TIME_SYSTEM":"UTC","PERIOD":"95.592","EPHEMERIS_TYPE":"0","SEMIMAJOR_AXIS":"6925.336","OBJECT_NAME":"STARLINK-1845","PERIAPSIS":"545.923","FILE":"3663561","TLE_LINE1":"1 47135U 20088P   22323.69094787  .00000987  00000-0  85139-4 0  9994","LAUNCH_DATE":"2020-11-25","MEAN_MOTION_DOT":"0.00000987","CENTER_NAME":"EARTH","SITE":"AFETR","COUNTRY_CODE":"US","MEAN_ANOMALY":"298.1742","MEAN_ELEMENT_THEORY":"SGP4","GP_ID":"218235521","RCS_SIZE":"LARGE","REV_AT_EPOCH":"11020","DECAY_DATE":null,"OBJECT_ID":"2020-088P","ELEMENT_SET_NO":"999","TLE_LINE2":"2 47135  53.0547 305.5616 0001845  61.9434 298.1742 15.06404215110202","APOAPSIS":"548.478","EPOCH":"2022-11-19T16:34:57.895968","BSTAR":"0.00008513900000","NORAD_CAT_ID":"47135","ARG_OF_PERICENTER":"61.9434","MEAN_MOTION":"15.06404215","RA_OF_ASC_NODE":"305.5616","CLASSIFICATION_TYPE":"U","MEAN_MOTION_DDOT":"0.0000000000000"}];
